TEVEL2-9                
1 63237U 25052AD  26132.21621942  .00009160  00000+0  31033-3 0  9994
2 63237  97.3983  27.6373 0004029 268.4577  91.6202 15.30786209 64522
TEVEL2-7                
1 63238U 25052AE  26132.96975065  .00010020  00000+0  34181-3 0  9999
2 63238  97.3986  28.3187 0004117 264.6324  95.4447 15.30533969 64631
TEVEL2-8                
1 63239U 25052AF  26132.97761239  .00010154  00000+0  34654-3 0  9990
2 63239  97.3986  28.3046 0004119 265.7040  94.3730 15.30515803 64635
HADES-ICM               
1 63492U 25052BN  26132.47089678  .00683974  19664-3  18689-2 0  9991
2 63492  97.3771  36.5368 0009249 170.5020 189.6432 15.94023464 65158
FORESAIL-1 PRIME        
1 66778U 25276DS  26132.94017593  .00003126  00000+0  15541-3 0  9998
2 66778  97.4209 206.8634 0001800 188.1800 171.9405 15.18368177 25057
