OBJECT_NAME,OBJECT_ID,EPOCH,MEAN_MOTION,ECCENTRICITY,INCLINATION,RA_OF_ASC_NODE,ARG_OF_PERICENTER,MEAN_ANOMALY,EPHEMERIS_TYPE,CLASSIFICATION_TYPE,NORAD_CAT_ID,ELEMENT_SET_NO,REV_AT_EPOCH,BSTAR,MEAN_MOTION_DOT,MEAN_MOTION_DDOT
TEVEL2-9,2025-052AD,2026-05-12T05:11:21.357888,15.30786209,.0004029,97.3983,27.6373,268.4577,91.6202,0,U,63237,999,6452,.31033E-3,.916E-4,0
TEVEL2-7,2025-052AE,2026-05-12T23:16:26.456160,15.30533969,.00041176,97.3986,28.3187,264.6324,95.4447,0,U,63238,999,6463,.34181302E-3,.1002E-3,0
TEVEL2-8,2025-052AF,2026-05-12T23:27:45.710496,15.30515803,.00041194,97.3986,28.3046,265.7040,94.3730,0,U,63239,999,6463,.34654084E-3,.10154E-3,0
HADES-ICM,2025-052BN,2026-05-12T11:18:05.481792,15.94023464,.0009249,97.3771,36.5368,170.5020,189.6432,0,U,63492,999,6515,.18689E-2,.683974E-2,.19664E-3
FORESAIL-1 PRIME,2025-276DS,2026-05-12T22:33:51.200352,15.18368177,.00018,97.4209,206.8634,188.1800,171.9405,0,U,66778,999,2505,.15540944E-3,.3126E-4,0
